CYGNUS NG-23            
1 65616U 25208A   26003.79081789  .00013445  00000+0  25095-3 0  9991
2 65616  51.6327  33.2893 0007553 337.0786  22.9864 15.49074434   228
DRAGONFLY               
1 65729U 98067XH  26003.42437273  .00387428  00000+0  18150-2 0  9990
2 65729  51.6230  24.0476 0008745  42.2754 317.8921 15.81556255 16583
1998-067XK              
1 65731U 98067XK  26003.46760807  .00181227  00000+0  14011-2 0  9990
2 65731  51.6285  26.6310 0005314  17.8507 342.2676 15.70784398 16559
RSP-03                  
1 65732U 98067XL  26003.92929527  .00229999  00000+0  14280-2 0  9995
2 65732  51.6253  22.9414 0006402  27.7088 332.4251 15.75752905 16657
GHS-01                  
1 65733U 98067XM  26003.75846831  .00526497  00000+0  17410-2 0  9994
2 65733  51.6254  21.0314 0009697  49.3616 310.8231 15.88467085 16669
YOTSUBA-KULOVER         
1 65941U 98067XN  26003.92675790  .00108318  00000+0  11594-2 0  9993
2 65941  51.6292  28.2018 0003619  49.7449 310.3862 15.63014459 13329
BOTAN                   
1 65942U 98067XP  26003.36106484  .00199480  00000+0  16993-2 0  9999
2 65942  51.6271  29.6684 0004416  36.8613 323.2687 15.68383653 13257
E-KAGAKU-1              
1 65943U 98067XQ  26003.28728899  .00110689  00000+0  11898-2 0  9994
2 65943  51.6300  31.4369 0002153  36.8432 323.2710 15.62898821 13223
HRC MONOBLOCK CAMERA    
1 66052U 98067XR  26003.56699728  .00046330  00000+0  66044-3 0  9990
2 66052  51.6307  32.5468 0001459 303.4363  56.6489 15.55835558 12238
HTV-X1                  
1 66174U 25241A   26003.79081789  .00013445  00000+0  25095-3 0  9998
2 66174  51.6327  33.2893 0007553 337.0786  22.9864 15.49074434   510
SZ-21 MODULE            
1 66515U 25246C   26003.70989194  .00038050  00000+0  39561-3 0  9992
2 66515  41.4753 241.9020 0002123  31.2361 328.8605 15.63848513  7880
SHENZHOU-22             
1 66645U 25272A   26003.93445481  .00023203  00000+0  27991-3 0  9994
2 66645  41.4655 241.8722 0010554 214.7507 145.2643 15.60151347267497
