CCSDS_OMM_VERS = 2.0
CREATION_DATE  = 
ORIGINATOR     = 

OBJECT_NAME    = CYGNUS NG-23
OBJECT_ID      = 2025-208A
CENTER_NAME    = EARTH
REF_FRAME      = TEME
TIME_SYSTEM    = UTC
MEAN_ELEMENT_THEORY = SGP/SGP4

EPOCH          = 2026-01-03T18:58:46.665696
MEAN_MOTION    = 15.49074434
ECCENTRICITY   = .00075535
INCLINATION    = 51.6327
RA_OF_ASC_NODE = 33.2893
ARG_OF_PERICENTER = 337.0786
MEAN_ANOMALY   = 22.9864

EPHEMERIS_TYPE = 0
CLASSIFICATION_TYPE = U
NORAD_CAT_ID   = 65616
ELEMENT_SET_NO = 999
REV_AT_EPOCH   = 22
BSTAR          = .25095454E-3
MEAN_MOTION_DOT = .13445E-3
MEAN_MOTION_DDOT = 0

CCSDS_OMM_VERS = 2.0
CREATION_DATE  = 
ORIGINATOR     = 

OBJECT_NAME    = DRAGONFLY
OBJECT_ID      = 1998-067XH
CENTER_NAME    = EARTH
REF_FRAME      = TEME
TIME_SYSTEM    = UTC
MEAN_ELEMENT_THEORY = SGP/SGP4

EPOCH          = 2026-01-03T10:11:05.803872
MEAN_MOTION    = 15.81556255
ECCENTRICITY   = .00087454
INCLINATION    = 51.6230
RA_OF_ASC_NODE = 24.0476
ARG_OF_PERICENTER = 42.2754
MEAN_ANOMALY   = 317.8921

EPHEMERIS_TYPE = 0
CLASSIFICATION_TYPE = U
NORAD_CAT_ID   = 65729
ELEMENT_SET_NO = 999
REV_AT_EPOCH   = 1658
BSTAR          = .18150148E-2
MEAN_MOTION_DOT = .387428E-2
MEAN_MOTION_DDOT = 0

CCSDS_OMM_VERS = 2.0
CREATION_DATE  = 
ORIGINATOR     = 

OBJECT_NAME    = 1998-067XK
OBJECT_ID      = 1998-067XK
CENTER_NAME    = EARTH
REF_FRAME      = TEME
TIME_SYSTEM    = UTC
MEAN_ELEMENT_THEORY = SGP/SGP4

EPOCH          = 2026-01-03T11:13:21.337248
MEAN_MOTION    = 15.70784398
ECCENTRICITY   = .00053143
INCLINATION    = 51.6285
RA_OF_ASC_NODE = 26.6310
ARG_OF_PERICENTER = 17.8507
MEAN_ANOMALY   = 342.2676

EPHEMERIS_TYPE = 0
CLASSIFICATION_TYPE = U
NORAD_CAT_ID   = 65731
ELEMENT_SET_NO = 999
REV_AT_EPOCH   = 1655
BSTAR          = .14011361E-2
MEAN_MOTION_DOT = .181227E-2
MEAN_MOTION_DDOT = 0

CCSDS_OMM_VERS = 2.0
CREATION_DATE  = 
ORIGINATOR     = 

OBJECT_NAME    = RSP-03
OBJECT_ID      = 1998-067XL
CENTER_NAME    = EARTH
REF_FRAME      = TEME
TIME_SYSTEM    = UTC
MEAN_ELEMENT_THEORY = SGP/SGP4

EPOCH          = 2026-01-03T22:18:11.111328
MEAN_MOTION    = 15.75752905
ECCENTRICITY   = .00064021
INCLINATION    = 51.6253
RA_OF_ASC_NODE = 22.9414
ARG_OF_PERICENTER = 27.7088
MEAN_ANOMALY   = 332.4251

EPHEMERIS_TYPE = 0
CLASSIFICATION_TYPE = U
NORAD_CAT_ID   = 65732
ELEMENT_SET_NO = 999
REV_AT_EPOCH   = 1665
BSTAR          = .14279878E-2
MEAN_MOTION_DOT = .229999E-2
MEAN_MOTION_DDOT = 0

CCSDS_OMM_VERS = 2.0
CREATION_DATE  = 
ORIGINATOR     = 

OBJECT_NAME    = GHS-01
OBJECT_ID      = 1998-067XM
CENTER_NAME    = EARTH
REF_FRAME      = TEME
TIME_SYSTEM    = UTC
MEAN_ELEMENT_THEORY = SGP/SGP4

EPOCH          = 2026-01-03T18:12:11.661984
MEAN_MOTION    = 15.88467085
ECCENTRICITY   = .00096979
INCLINATION    = 51.6254
RA_OF_ASC_NODE = 21.0314
ARG_OF_PERICENTER = 49.3616
MEAN_ANOMALY   = 310.8231

EPHEMERIS_TYPE = 0
CLASSIFICATION_TYPE = U
NORAD_CAT_ID   = 65733
ELEMENT_SET_NO = 999
REV_AT_EPOCH   = 1666
BSTAR          = .17409741E-2
MEAN_MOTION_DOT = .526497E-2
MEAN_MOTION_DDOT = 0

CCSDS_OMM_VERS = 2.0
CREATION_DATE  = 
ORIGINATOR     = 

OBJECT_NAME    = YOTSUBA-KULOVER
OBJECT_ID      = 1998-067XN
CENTER_NAME    = EARTH
REF_FRAME      = TEME
TIME_SYSTEM    = UTC
MEAN_ELEMENT_THEORY = SGP/SGP4

EPOCH          = 2026-01-03T22:14:31.882560
MEAN_MOTION    = 15.63014459
ECCENTRICITY   = .00036196
INCLINATION    = 51.6292
RA_OF_ASC_NODE = 28.2018
ARG_OF_PERICENTER = 49.7449
MEAN_ANOMALY   = 310.3862

EPHEMERIS_TYPE = 0
CLASSIFICATION_TYPE = U
NORAD_CAT_ID   = 65941
ELEMENT_SET_NO = 999
REV_AT_EPOCH   = 1332
BSTAR          = .11593867E-2
MEAN_MOTION_DOT = .108318E-2
MEAN_MOTION_DDOT = 0

CCSDS_OMM_VERS = 2.0
CREATION_DATE  = 
ORIGINATOR     = 

OBJECT_NAME    = BOTAN
OBJECT_ID      = 1998-067XP
CENTER_NAME    = EARTH
REF_FRAME      = TEME
TIME_SYSTEM    = UTC
MEAN_ELEMENT_THEORY = SGP/SGP4

EPOCH          = 2026-01-03T08:39:56.002176
MEAN_MOTION    = 15.68383653
ECCENTRICITY   = .00044161
INCLINATION    = 51.6271
RA_OF_ASC_NODE = 29.6684
ARG_OF_PERICENTER = 36.8613
MEAN_ANOMALY   = 323.2687

EPHEMERIS_TYPE = 0
CLASSIFICATION_TYPE = U
NORAD_CAT_ID   = 65942
ELEMENT_SET_NO = 999
REV_AT_EPOCH   = 1325
BSTAR          = .16993233E-2
MEAN_MOTION_DOT = .19948E-2
MEAN_MOTION_DDOT = 0

CCSDS_OMM_VERS = 2.0
CREATION_DATE  = 
ORIGINATOR     = 

OBJECT_NAME    = E-KAGAKU-1
OBJECT_ID      = 1998-067XQ
CENTER_NAME    = EARTH
REF_FRAME      = TEME
TIME_SYSTEM    = UTC
MEAN_ELEMENT_THEORY = SGP/SGP4

EPOCH          = 2026-01-03T06:53:41.768736
MEAN_MOTION    = 15.62898821
ECCENTRICITY   = .00021531
INCLINATION    = 51.6300
RA_OF_ASC_NODE = 31.4369
ARG_OF_PERICENTER = 36.8432
MEAN_ANOMALY   = 323.2710

EPHEMERIS_TYPE = 0
CLASSIFICATION_TYPE = U
NORAD_CAT_ID   = 65943
ELEMENT_SET_NO = 999
REV_AT_EPOCH   = 1322
BSTAR          = .11898329E-2
MEAN_MOTION_DOT = .110689E-2
MEAN_MOTION_DDOT = 0

CCSDS_OMM_VERS = 2.0
CREATION_DATE  = 
ORIGINATOR     = 

OBJECT_NAME    = HRC MONOBLOCK CAMERA
OBJECT_ID      = 1998-067XR
CENTER_NAME    = EARTH
REF_FRAME      = TEME
TIME_SYSTEM    = UTC
MEAN_ELEMENT_THEORY = SGP/SGP4

EPOCH          = 2026-01-03T13:36:28.564992
MEAN_MOTION    = 15.55835558
ECCENTRICITY   = .00014592
INCLINATION    = 51.6307
RA_OF_ASC_NODE = 32.5468
ARG_OF_PERICENTER = 303.4363
MEAN_ANOMALY   = 56.6489

EPHEMERIS_TYPE = 0
CLASSIFICATION_TYPE = U
NORAD_CAT_ID   = 66052
ELEMENT_SET_NO = 999
REV_AT_EPOCH   = 1223
BSTAR          = .66044048E-3
MEAN_MOTION_DOT = .4633E-3
MEAN_MOTION_DDOT = 0

CCSDS_OMM_VERS = 2.0
CREATION_DATE  = 
ORIGINATOR     = 

OBJECT_NAME    = HTV-X1
OBJECT_ID      = 2025-241A
CENTER_NAME    = EARTH
REF_FRAME      = TEME
TIME_SYSTEM    = UTC
MEAN_ELEMENT_THEORY = SGP/SGP4

EPOCH          = 2026-01-03T18:58:46.665696
MEAN_MOTION    = 15.49074434
ECCENTRICITY   = .00075535
INCLINATION    = 51.6327
RA_OF_ASC_NODE = 33.2893
ARG_OF_PERICENTER = 337.0786
MEAN_ANOMALY   = 22.9864

EPHEMERIS_TYPE = 0
CLASSIFICATION_TYPE = U
NORAD_CAT_ID   = 66174
ELEMENT_SET_NO = 999
REV_AT_EPOCH   = 51
BSTAR          = .25095454E-3
MEAN_MOTION_DOT = .13445E-3
MEAN_MOTION_DDOT = 0

CCSDS_OMM_VERS = 2.0
CREATION_DATE  = 
ORIGINATOR     = 

OBJECT_NAME    = SZ-21 MODULE
OBJECT_ID      = 2025-246C
CENTER_NAME    = EARTH
REF_FRAME      = TEME
TIME_SYSTEM    = UTC
MEAN_ELEMENT_THEORY = SGP/SGP4

EPOCH          = 2026-01-03T17:02:14.663616
MEAN_MOTION    = 15.63848513
ECCENTRICITY   = .00021237
INCLINATION    = 41.4753
RA_OF_ASC_NODE = 241.9020
ARG_OF_PERICENTER = 31.2361
MEAN_ANOMALY   = 328.8605

EPHEMERIS_TYPE = 0
CLASSIFICATION_TYPE = U
NORAD_CAT_ID   = 66515
ELEMENT_SET_NO = 999
REV_AT_EPOCH   = 788
BSTAR          = .39560556E-3
MEAN_MOTION_DOT = .3805E-3
MEAN_MOTION_DDOT = 0

CCSDS_OMM_VERS = 2.0
CREATION_DATE  = 
ORIGINATOR     = 

OBJECT_NAME    = SHENZHOU-22
OBJECT_ID      = 2025-272A
CENTER_NAME    = EARTH
REF_FRAME      = TEME
TIME_SYSTEM    = UTC
MEAN_ELEMENT_THEORY = SGP/SGP4

EPOCH          = 2026-01-03T22:25:36.895584
MEAN_MOTION    = 15.60151347
ECCENTRICITY   = .00105545
INCLINATION    = 41.4655
RA_OF_ASC_NODE = 241.8722
ARG_OF_PERICENTER = 214.7507
MEAN_ANOMALY   = 145.2643

EPHEMERIS_TYPE = 0
CLASSIFICATION_TYPE = U
NORAD_CAT_ID   = 66645
ELEMENT_SET_NO = 999
REV_AT_EPOCH   = 26749
BSTAR          = .27990901E-3
MEAN_MOTION_DOT = .23203E-3
MEAN_MOTION_DDOT = 0

